{"type":"FeatureCollection","features":[{"type":"Feature","properties":{},"geometry":{"type":"Polygon","coordinates":[[[121.153441,31.384838],[121.21691,31.316498],[121.217493,31.308859],[121.318745,31.32027],[121.311242,31.345227],[121.300945,31.368073],[121.290093,31.417736],[121.270778,31.416294],[121.250801,31.416507],[121.236146,31.4111],[121.205203,31.453149],[121.177697,31.440439],[121.153441,31.384838]]]}},{"type":"Feature","properties":{"label":"嘉定新城"},"geometry":{"type":"Point","coordinates":[121.237096,31.371515]}},{"type":"Feature","properties":{},"geometry":{"type":"Polygon","coordinates":[[[121.786258,31.008238],[121.786258,30.956163],[121.770213,30.935521],[121.756481,30.91743],[121.710688,30.920322],[121.689989,30.919791],[121.695719,30.881439],[121.733539,30.881439],[121.730101,30.846023],[121.835539,30.846023],[121.842415,30.849959],[121.881381,30.847007],[121.974213,30.88439],[121.974213,30.923724],[121.936393,31.005291],[121.786258,31.008238]]]}},{"type":"Feature","properties":{"label":"南汇新城"},"geometry":{"type":"Point","coordinates":[121.868256,30.918188]}},{"type":"Feature","properties":{},"geometry":{"type":"Polygon","coordinates":[[[121.413787,30.965008],[121.423251,30.941074],[121.410758,30.938488],[121.413773,30.931098],[121.425835,30.933684],[121.439,30.900125],[121.521517,30.912909],[121.518079,30.964025],[121.510056,30.979747],[121.480258,30.978765],[121.413787,30.965008]]]}},{"type":"Feature","properties":{"label":"奉贤新城"},"geometry":{"type":"Point","coordinates":[121.470691,30.939865]}},{"type":"Feature","properties":{},"geometry":{"type":"Polygon","coordinates":[[[121.132058,31.048632],[121.139311,31.032471],[121.147899,31.019042],[121.158214,30.98073],[121.205694,30.982108],[121.259193,30.981175],[121.30491,30.987608],[121.320817,30.999475],[121.337496,31.015795],[121.328978,31.015114],[121.330124,31.067157],[121.301472,31.052431],[121.296888,31.070102],[121.280843,31.066175],[121.168529,31.071083],[121.132058,31.048632]]]}},{"type":"Feature","properties":{"label":"松江新城"},"geometry":{"type":"Point","coordinates":[121.233021,31.024573]}},{"type":"Feature","properties":{},"geometry":{"type":"Polygon","coordinates":[[[121.061821,31.126393],[121.079135,31.128982],[121.09518,31.138792],[121.137402,31.140025],[121.159541,31.140255],[121.15846,31.150651],[121.173308,31.14793],[121.188865,31.149529],[121.177697,31.203512],[121.154608,31.202908],[121.154289,31.216811],[121.113517,31.223115],[121.086821,31.22741],[121.072287,31.224586],[121.076843,31.170177],[121.087158,31.15939],[121.087158,31.151544],[121.072259,31.150563],[121.060742,31.139333],[121.061821,31.126393]]]}},{"type":"Feature","properties":{"label":"青浦新城"},"geometry":{"type":"Point","coordinates":[121.124626,31.179078]}}]}