{"type":"FeatureCollection","features":[{"type":"Feature","properties":{"label":"上海城市规划展示馆"},"geometry":{"type":"Point","coordinates":[121.470883,31.233368]}},{"type":"Feature","properties":{"label":"上海市历史博物馆"},"geometry":{"type":"Point","coordinates":[121.466625,31.232621]}},{"type":"Feature","properties":{"label":"人民广场音乐喷泉"},"geometry":{"type":"Point","coordinates":[121.47006,31.231258]}},{"type":"Feature","properties":{"label":"杜莎夫人蜡像馆"},"geometry":{"type":"Point","coordinates":[121.468998,31.236538]}},{"type":"Feature","properties":{"label":"人民公园相亲角"},"geometry":{"type":"Point","coordinates":[121.468167,31.234182]}},{"type":"Feature","properties":{"label":"人民公园游乐场"},"geometry":{"type":"Point","coordinates":[121.468943,31.234505]}}]}