{"type":"FeatureCollection","features":[{"type":"Feature","properties":{},"geometry":{"type":"Polygon","coordinates":[[[121.544501,31.486231],[121.556067,31.484968],[121.560853,31.482332],[121.56377,31.478169],[121.565662,31.471294],[121.569075,31.465515],[121.574596,31.459351],[121.577828,31.453167],[121.58929,31.449064],[121.613265,31.444942],[121.623304,31.441228],[121.625567,31.439663],[121.629971,31.438932],[121.643182,31.433661],[121.644772,31.433818],[121.64802,31.432708],[121.65268,31.431463],[121.656269,31.431803],[121.665043,31.430017],[121.668133,31.427805],[121.681793,31.42287],[121.700043,31.416867],[121.706937,31.414868],[121.709688,31.414122],[121.712451,31.412842],[121.716952,31.411157],[121.721349,31.421665],[121.721628,31.422854],[121.721405,31.423805],[121.720346,31.424852],[121.693695,31.442168],[121.675968,31.452371],[121.612415,31.481402],[121.59885,31.487106],[121.585378,31.489918],[121.569081,31.490239],[121.549486,31.491364],[121.549272,31.489782],[121.547296,31.489849],[121.546872,31.490424],[121.545175,31.490338],[121.544826,31.489317],[121.544351,31.489125],[121.543877,31.487167],[121.544593,31.486718],[121.544501,31.486231]]]}}]}