{"type":"FeatureCollection","features":[{"type":"Feature","properties":{},"geometry":{"type":"LineString","coordinates":[[121.31179,31.243052],[121.311745,31.243113],[121.311417,31.24301],[121.310837,31.243006],[121.307579,31.243126],[121.307381,31.243217],[121.306137,31.243168],[121.30024,31.243393],[121.300312,31.24339],[121.299088,31.243723],[121.299133,31.243658],[121.295135,31.245703],[121.293762,31.245996],[121.292488,31.245905],[121.292565,31.245918],[121.28688,31.244526],[121.28647,31.244517],[121.285858,31.246283],[121.28511,31.247606],[121.281944,31.251587],[121.281349,31.252579],[121.281158,31.253134],[121.281052,31.253902],[121.281319,31.255844],[121.281311,31.256424],[121.281139,31.257042],[121.280167,31.258966],[121.277824,31.262863],[121.277283,31.263563],[121.276733,31.264072],[121.275833,31.26462],[121.274519,31.265078],[121.272919,31.265223],[121.273011,31.265224],[121.272804,31.265249],[121.272908,31.265241],[121.272705,31.2654],[121.272765,31.26534],[121.272652,31.266088],[121.272385,31.272596],[121.271233,31.281824],[121.270805,31.286083],[121.270912,31.287163],[121.271133,31.288166],[121.27112,31.288097],[121.27125,31.288414],[121.271641,31.288878],[121.271645,31.289757],[121.271973,31.290436],[121.27269,31.291149],[121.273588,31.291725],[121.273911,31.291758],[121.276703,31.290852],[121.276777,31.290732],[121.276451,31.290714],[121.276657,31.290747],[121.276711,31.29085],[121.278519,31.290373],[121.286611,31.287805],[121.286652,31.287674],[121.286621,31.287741],[121.285904,31.285172],[121.285588,31.284692],[121.284889,31.284075],[121.284126,31.282892],[121.283821,31.281481],[121.283875,31.280558],[121.284065,31.279737],[121.284142,31.279732],[121.284996,31.278166],[121.285446,31.276674],[121.285576,31.276541],[121.285524,31.276606],[121.285606,31.276564],[121.285713,31.27672],[121.285439,31.277731],[121.284325,31.279892],[121.284081,31.281191],[121.284164,31.282091],[121.284508,31.28303],[121.28492,31.283682],[121.28488,31.283622],[121.2855,31.284267],[121.29789,31.280924],[121.301247,31.279518],[121.301712,31.279203],[121.304161,31.276688],[121.305351,31.275898],[121.306839,31.275433],[121.310745,31.274927],[121.310982,31.275326],[121.311187,31.276211],[121.312019,31.276478],[121.312096,31.276623],[121.313171,31.277014],[121.312799,31.278186],[121.312607,31.278414],[121.312187,31.27862],[121.310989,31.278792],[121.30954,31.278614],[121.309242,31.278654],[121.309332,31.278642],[121.309021,31.278908],[121.30896,31.279097],[121.309212,31.280334],[121.309517,31.280952],[121.309395,31.280857],[121.309113,31.279882],[121.309006,31.279781],[121.308929,31.279137],[121.309166,31.278708],[121.309387,31.27865],[121.310226,31.278801],[121.311966,31.278708],[121.312569,31.278355],[121.313065,31.277506],[121.312781,31.276896],[121.312119,31.27673],[121.31218,31.276741],[121.311951,31.276554],[121.311088,31.276174],[121.310852,31.275314],[121.310677,31.275181],[121.310736,31.275213],[121.308578,31.275446],[121.307343,31.275688],[121.307407,31.275659],[121.307358,31.275814],[121.307892,31.27742],[121.309189,31.282375],[121.30928,31.28335],[121.309029,31.284487],[121.308296,31.285652],[121.307266,31.286512],[121.305916,31.287292],[121.306053,31.28727],[121.306015,31.287359],[121.30487,31.28792],[121.304846,31.287948],[121.304835,31.288045],[121.304831,31.288061],[121.304862,31.288235],[121.304899,31.288264],[121.306259,31.288803],[121.306313,31.289146],[121.305412,31.290291],[121.304291,31.291956],[121.30455,31.292189],[121.305793,31.292709]]}},{"type":"Feature","properties":{"label":"13号线金运路站"},"geometry":{"type":"Point","coordinates":[121.314693,31.242996]}},{"type":"Feature","properties":{"label":"虹桥动车运用所"},"geometry":{"type":"Point","coordinates":[121.296242,31.241386]}},{"type":"Feature","properties":{"label":"下穿京沪高铁"},"geometry":{"type":"Point","coordinates":[121.289512,31.245049]}},{"type":"Feature","properties":{"label":"太太乐鸡精厂塔楼"},"geometry":{"type":"Point","coordinates":[121.278239,31.259132]}},{"type":"Feature","properties":{"label":"下穿京沪线沪宁段"},"geometry":{"type":"Point","coordinates":[121.271644,31.288898]}},{"type":"Feature","properties":{"label":"沪通铁路桥"},"geometry":{"type":"Point","coordinates":[121.283066,31.278641]}},{"type":"Feature","properties":{"label":"黄家花园"},"geometry":{"type":"Point","coordinates":[121.312592,31.275865]}},{"type":"Feature","properties":{"label":"南翔货运站"},"geometry":{"type":"Point","coordinates":[121.311027,31.278851]}},{"type":"Feature","properties":{"label":"一个铁路平交路口"},"geometry":{"type":"Point","coordinates":[121.309371,31.28091]}},{"type":"Feature","properties":{"label":"南翔古镇"},"geometry":{"type":"Point","coordinates":[121.30408,31.293679]}},{"type":"Feature","properties":{"label":"11号线南翔站"},"geometry":{"type":"Point","coordinates":[121.318555,31.298891]}}]}