{"type":"FeatureCollection","features":[{"type":"Feature","geometry":{"type":"LineString","coordinates":[[121.54377,31.254902],[121.542633,31.254349],[121.542221,31.253592],[121.541504,31.253239],[121.541107,31.253418],[121.5401,31.253138],[121.530312,31.248123],[121.527718,31.247562],[121.524757,31.246475],[121.52243,31.246298],[121.521347,31.246611],[121.518799,31.246176],[121.518005,31.246475],[121.51397,31.246666],[121.512924,31.24621],[121.508797,31.246183],[121.507263,31.246817],[121.504425,31.246763],[121.497299,31.244947],[121.493683,31.243279],[121.491302,31.241451],[121.491028,31.240166],[121.491821,31.23802],[121.492592,31.237772],[121.49482,31.235823],[121.49469,31.235611],[121.495201,31.23568],[121.49736,31.233959],[121.497665,31.233536],[121.497414,31.233404],[121.497612,31.233654],[121.499275,31.232241],[121.49939,31.231829],[121.502625,31.22864],[121.50354,31.227171],[121.504883,31.22599],[121.506302,31.223555],[121.508446,31.218136],[121.508255,31.217726],[121.508453,31.217207],[121.507645,31.215469],[121.507858,31.214918],[121.505821,31.212675],[121.505142,31.211016],[121.505249,31.210667],[121.503632,31.208128],[121.504105,31.207464],[121.503632,31.206533],[121.503777,31.205761],[121.501999,31.204945],[121.501991,31.204227],[121.500687,31.203318],[121.498421,31.199551],[121.497177,31.198414],[121.497047,31.197346],[121.495934,31.197168],[121.495079,31.196218],[121.494934,31.195496],[121.493507,31.194157],[121.490837,31.192234],[121.48996,31.192556],[121.487343,31.191586],[121.487053,31.191765],[121.486008,31.191051],[121.483536,31.190445],[121.483482,31.189692],[121.482582,31.189316],[121.479202,31.189116],[121.477127,31.188082],[121.474319,31.187927],[121.47364,31.187422],[121.471848,31.187342],[121.470284,31.186741],[121.470047,31.186251],[121.467407,31.184681],[121.465088,31.181721],[121.464172,31.181429],[121.463638,31.179676],[121.463943,31.178818],[121.463294,31.177801],[121.463509,31.176361],[121.467072,31.170795],[121.467178,31.170333],[121.466209,31.169538],[121.466461,31.168724],[121.467827,31.167402],[121.46804,31.165663],[121.468826,31.164749],[121.468796,31.162119],[121.467728,31.161343],[121.468315,31.161158],[121.468201,31.159899],[121.467705,31.158566],[121.466715,31.157924],[121.466377,31.157156],[121.465775,31.156593],[121.465462,31.15694],[121.465141,31.15687],[121.462021,31.154093],[121.461502,31.153149],[121.459839,31.152178],[121.455963,31.14889],[121.455605,31.148039],[121.455841,31.148745],[121.456866,31.149665],[121.455356,31.148308],[121.455681,31.147791],[121.456413,31.147526],[121.456177,31.147192],[121.455984,31.147322],[121.4561,31.146828],[121.45562,31.145863],[121.456566,31.144953],[121.457092,31.143867],[121.456123,31.143023],[121.457405,31.141331],[121.459145,31.139555],[121.460144,31.139282],[121.46003,31.138571],[121.460732,31.137932],[121.46153,31.138109],[121.461212,31.137577],[121.462425,31.136976],[121.462372,31.136333],[121.463074,31.135542],[121.464363,31.135517],[121.464317,31.135099],[121.464622,31.134829],[121.465645,31.135313],[121.46685,31.134014],[121.467972,31.133522]]},"properties":{}},{"type":"Feature","properties":{"label":"杨浦大桥"},"geometry":{"type":"Point","coordinates":[121.541367,31.257136]}},{"type":"Feature","properties":{"label":"东方明珠"},"geometry":{"type":"Point","coordinates":[121.495261,31.241889]}},{"type":"Feature","properties":{"label":"南浦大桥"},"geometry":{"type":"Point","coordinates":[121.500913,31.207527]}},{"type":"Feature","properties":{"label":"梅奔文化中心"},"geometry":{"type":"Point","coordinates":[121.488634,31.191013]}},{"type":"Feature","properties":{"label":"8号线凌兆新村站","color":"blue"},"geometry":{"type":"Point","coordinates":[121.484855,31.143018]}},{"type":"Feature","properties":{"label":"14号线歇浦路站","color":"olive"},"geometry":{"type":"Point","coordinates":[121.547033,31.252671]}},{"type":"Feature","properties":{"label":"卢浦大桥"},"geometry":{"type":"Point","coordinates":[121.476438,31.191134]}},{"type":"Feature","properties":{"label":"徐浦大桥"},"geometry":{"type":"Point","coordinates":[121.464424,31.129422]}}]}