{"type":"FeatureCollection","features":[{"type":"Feature","properties":{"label":"长滩观光塔"},"geometry":{"type":"Point","coordinates":[121.483794,31.416448]}},{"type":"Feature","properties":{"label":"吴淞口国际邮轮港"},"geometry":{"type":"Point","coordinates":[121.504217,31.411755]}},{"type":"Feature","properties":{"label":"宝钢综合码头"},"geometry":{"type":"Point","coordinates":[121.476784,31.427391]}},{"type":"Feature","properties":{},"geometry":{"type":"LineString","coordinates":[[121.492963,31.412223],[121.48899,31.41636],[121.486191,31.416659],[121.483817,31.41715],[121.482168,31.417576],[121.476795,31.417853],[121.471485,31.418173]]}},{"type":"Feature","properties":{"label":"3号线友谊路站","color":"yellow"},"geometry":{"type":"Point","coordinates":[121.471373,31.405897]}}]}