{"type":"FeatureCollection","features":[{"type":"Feature","geometry":{"type":"Point","coordinates":[121.484728,31.19623]},"properties":{"label":"远望1号"}},{"type":"Feature","geometry":{"type":"Point","coordinates":[121.484164,31.196253]},"properties":{"label":"长城191号"}},{"type":"Feature","geometry":{"type":"Point","coordinates":[121.47745,31.19659]},"properties":{"label":"世博会博物馆"}},{"type":"Feature","properties":{"label":"4/8号线西藏南路站","color":"blue"},"geometry":{"type":"Point","coordinates":[121.484956,31.203556]}},{"type":"Feature","properties":{"label":"13号线世博会博物馆站","color":"magenta"},"geometry":{"type":"Point","coordinates":[121.477083,31.19924]}},{"type":"Feature","properties":{"label":"上海当代艺术博物馆"},"geometry":{"type":"Point","coordinates":[121.493913,31.203057]}},{"type":"Feature","properties":{"label":"4号线鲁班路站","color":"purple"},"geometry":{"type":"Point","coordinates":[121.470551,31.201082]}}]}