{"type":"FeatureCollection","features":[{"type":"Feature","properties":{"label":"同济大学 (10)"},"geometry":{"type":"Point","coordinates":[121.501963,31.284453]}},{"type":"Feature","properties":{"label":"四平路 (10/8)"},"geometry":{"type":"Point","coordinates":[121.496992,31.276858]}},{"type":"Feature","properties":{"label":"赤峰路 (3)"},"geometry":{"type":"Point","coordinates":[121.477944,31.283182]}},{"type":"Feature","properties":{"label":"国权路 (10/18)"},"geometry":{"type":"Point","coordinates":[121.505577,31.291264]}},{"type":"Feature","properties":{"color":"#C6AFD4"},"geometry":{"type":"LineString","coordinates":[[121.507623,31.295312],[121.505575,31.291284],[121.502005,31.284408],[121.499096,31.278883],[121.496958,31.27684],[121.491197,31.271631]]}},{"type":"Feature","properties":{"color":"#0095D9"},"geometry":{"type":"LineString","coordinates":[[121.516532,31.277687],[121.509001,31.275903],[121.505133,31.275235],[121.497007,31.276871],[121.494624,31.27824],[121.485794,31.278541],[121.482595,31.278536],[121.48055,31.277587],[121.478943,31.272468],[121.477511,31.271594],[121.474735,31.271893],[121.471577,31.272686]]}},{"type":"Feature","properties":{"color":"#FCD600"},"geometry":{"type":"LineString","coordinates":[[121.478972,31.293987],[121.478685,31.291426],[121.477941,31.283189],[121.477454,31.280777],[121.476016,31.277968],[121.475015,31.275905],[121.47463,31.274304],[121.474707,31.272658],[121.475245,31.270846],[121.475484,31.269211]]}},{"type":"Feature","properties":{"color":"#C09453"},"geometry":{"type":"LineString","coordinates":[[121.497561,31.295119],[121.509922,31.289929],[121.510511,31.289082],[121.512153,31.283337],[121.515202,31.274004]]}}]}