{"type":"FeatureCollection","features":[{"type":"Feature","properties":{"label":"东方明珠"},"geometry":{"type":"Point","coordinates":[121.495268,31.241919]}},{"type":"Feature","properties":{"label":"环球金融中心"},"geometry":{"type":"Point","coordinates":[121.502881,31.236667]}},{"type":"Feature","properties":{"label":"上海中心大厦"},"geometry":{"type":"Point","coordinates":[121.501231,31.235566]}},{"type":"Feature","properties":{"label":"金茂大厦"},"geometry":{"type":"Point","coordinates":[121.50136,31.237263]}},{"type":"Feature","properties":{"label":"白玉兰观景台","color":"green"},"geometry":{"type":"Point","coordinates":[121.493894,31.251066]}}]}